0 COSMOS 711
1 07678U 75016A   13281.81007074  .00000013  00000-0  19996-3 0  8269
2 07678 074.0031 074.1783 0020102 353.2667 113.0907 12.47022117757830
0 COSMOS 711
1 07678U 75016A   13284.13773390 -.00000017  00000-0 -10570-4 0  8275
2 07678 074.0035 071.0969 0020145 349.8012 122.6143 12.47022510758126
0 COSMOS 711
1 07678U 75016A   13286.14279207 -.00000032  00000-0 -10749-3 0  8281
2 07678 074.0041 068.4427 0020186 346.8296 123.8634 12.47022726758372
0 COSMOS 711
1 07678U 75016A   13288.46095648 -.00000041  00000-0 -17223-3 0  8298
2 07678 074.0048 065.3743 0020230 343.3862 090.7403 12.47022543758662
0 COSMOS 711
1 07678U 75016A   13290.47478654 -.00000013  00000-0  22466-4 0  8300
2 07678 074.0052 062.7088 0020266 340.3963 131.3758 12.47022298758918
0 COSMOS 711
1 07678U 75016A   13292.48050587  .00000006  00000-0  15281-3 0  8312
2 07678 074.0054 060.0542 0020292 337.4542 135.5627 12.47022191759166
0 COSMOS 711
1 07678U 75016A   13294.48647231  .00000007  00000-0  15983-3 0  8323
2 07678 074.0055 057.3992 0020322 334.5001 140.8690 12.47022336759415
